OBJECT_NAME,OBJECT_ID,EPOCH,MEAN_MOTION,ECCENTRICITY,INCLINATION,RA_OF_ASC_NODE,ARG_OF_PERICENTER,MEAN_ANOMALY,EPHEMERIS_TYPE,CLASSIFICATION_TYPE,NORAD_CAT_ID,ELEMENT_SET_NO,REV_AT_EPOCH,BSTAR,MEAN_MOTION_DOT,MEAN_MOTION_DDOT
BEIDOU-2 M4,2012-018B,2026-05-16T10:34:11.164800,1.86229529,.0010975,55.6865,305.1615,280.9040,78.9509,0,U,38251,999,9535,0,-.53E-6,0
ARIRANG-3 (KOMPSAT-3),2012-025B,2026-05-16T19:52:21.203616,14.62176393,.0004694,98.1160,94.8339,199.3998,160.7026,0,U,38338,999,74676,.56416E-4,.237E-5,0
METOP-B,2012-049A,2026-05-16T20:46:09.087744,14.21423367,.0003491,98.6525,188.9860,84.9306,275.2270,0,U,38771,999,70881,.47391E-4,.6E-6,0
SJ-9A,2012-056A,2026-05-16T20:11:34.373184,14.85401852,.0025685,97.6692,109.9328,4.2921,355.8510,0,U,38860,999,69493,.93263E-4,.755E-5,0
COSMOS 2484 (RODNIK-S 6),2013-001C,2026-05-16T20:01:01.285824,12.42937949,.0027565,82.5027,241.3826,102.6625,257.7539,0,U,39059,999,60466,-.18949E-3,-.16E-6,0
SARAL,2013-009A,2026-05-16T19:50:10.419936,14.32847777,.0002457,98.5559,323.7909,45.4543,314.6841,0,U,39086,999,69111,.33863E-4,.49E-6,0
STRAND-1,2013-009E,2026-05-16T17:25:26.819904,14.37143381,.0007972,98.3916,317.7362,332.7119,27.3648,0,U,39090,999,69254,.72075E-4,.171E-5,0
BRITE-AUSTRIA,2013-009F,2026-05-16T10:43:20.009568,14.36528593,.000972,98.3987,316.6696,341.7953,18.2885,0,U,39091,999,69249,.50264E-4,.105E-5,0
GAOFEN-1,2013-018A,2026-05-16T21:21:37.662336,14.76537990,.0017326,97.9108,209.5913,11.9656,348.1962,0,U,39150,999,70362,.52475E-4,.316E-5,0
NEE-01 PEGASO,2013-018B,2026-05-16T20:17:00.447648,14.93493026,.0011305,98.1182,279.9712,266.7567,93.2358,0,U,39151,999,70602,.11477E-3,.1147E-4,0
PROBA-V,2013-021A,2026-05-16T16:50:34.173024,14.23589914,.0003378,98.3572,116.8662,210.8242,149.2739,0,U,39159,999,67663,.32065E-4,.32E-6,0
ARIRANG-5 (KOMPSAT-5),2013-042A,2026-05-16T20:10:28.317792,15.04492807,.0001999,97.6211,323.9821,216.2449,143.8642,0,U,39227,999,69914,.57728E-4,.747E-5,0
GONETS-M 5,2013-048A,2026-05-16T21:10:17.728032,12.42890830,.0015743,82.4857,2.9024,283.4062,76.5263,0,U,39249,999,57499,.52984E-4,.17E-6,0
GONETS-M 7,2013-048C,2026-05-16T20:17:46.731264,12.42914006,.0016555,82.4926,5.8306,284.7978,75.1267,0,U,39251,999,57494,.80227E-3,.121E-5,0
FENGYUN 3C,2013-052A,2026-05-16T21:02:25.914048,14.15747371,.0015764,98.4965,112.1930,111.6893,248.5962,0,U,39260,999,65413,.46282E-4,.5E-6,0
CASSIOPE,2013-055A,2026-05-16T20:09:42.034176,15.22755835,.0300785,80.9136,104.7063,167.5059,193.3855,0,U,39265,999,66289,.32231E-3,.28385E-3,-.60511E-6
APRIZESAT 7,2013-066A,2026-05-16T14:57:17.828064,14.91487400,.0034822,97.7691,90.3023,317.9803,41.8745,0,U,39416,999,67652,.93409E-4,.887E-5,0
ZACUBE-1 (TSHEPISOSAT),2013-066B,2026-05-16T21:02:35.272032,15.00930533,.0041362,97.8122,99.0440,358.2569,1.8503,0,U,39417,999,67603,.24635E-3,.3131E-4,0
APRIZESAT 8,2013-066K,2026-05-16T19:07:45.374016,14.87579526,.0046803,97.8206,84.7084,30.9266,329.4692,0,U,39425,999,67500,.79315E-4,.678E-5,0
TRITON-1,2013-066M,2026-05-16T16:33:10.588896,14.81557878,.00898,97.8272,47.2142,338.0604,21.6773,0,U,39427,999,66942,.15823E-3,.1273E-4,0
