BEIDOU-2 M4             
1 38251U 12018B   26136.44040700 -.00000053  00000+0  00000+0 0  9995
2 38251  55.6865 305.1615 0010975 280.9040  78.9509  1.86229529 95356
ARIRANG-3 (KOMPSAT-3)   
1 38338U 12025B   26136.82802319  .00000237  00000+0  56416-4 0  9993
2 38338  98.1160  94.8339 0004694 199.3998 160.7026 14.62176393746763
METOP-B                 
1 38771U 12049A   26136.86538296  .00000060  00000+0  47391-4 0  9990
2 38771  98.6525 188.9860 0003491  84.9306 275.2270 14.21423367708812
SJ-9A                   
1 38860U 12056A   26136.84137006  .00000755  00000+0  93263-4 0  9999
2 38860  97.6692 109.9328 0025685   4.2921 355.8510 14.85401852694938
COSMOS 2484 (RODNIK-S 6)
1 39059U 13001C   26136.83404266 -.00000016  00000+0 -18949-3 0  9994
2 39059  82.5027 241.3826 0027565 102.6625 257.7539 12.42937949604665
SARAL                   
1 39086U 13009A   26136.82650949  .00000049  00000+0  33863-4 0  9999
2 39086  98.5559 323.7909 0002457  45.4543 314.6841 14.32847777691110
STRAND-1                
1 39090U 13009E   26136.72600486  .00000171  00000+0  72075-4 0  9998
2 39090  98.3916 317.7362 0007972 332.7119  27.3648 14.37143381692540
BRITE-AUSTRIA           
1 39091U 13009F   26136.44675937  .00000105  00000+0  50264-4 0  9994
2 39091  98.3987 316.6696 0009720 341.7953  18.2885 14.36528593692493
GAOFEN-1                
1 39150U 13018A   26136.89001924  .00000316  00000+0  52475-4 0  9998
2 39150  97.9108 209.5913 0017326  11.9656 348.1962 14.76537990703622
NEE-01 PEGASO           
1 39151U 13018B   26136.84514407  .00001147  00000+0  11477-3 0  9998
2 39151  98.1182 279.9712 0011305 266.7567  93.2358 14.93493026706022
PROBA-V                 
1 39159U 13021A   26136.70178441  .00000032  00000+0  32065-4 0  9998
2 39159  98.3572 116.8662 0003378 210.8242 149.2739 14.23589914676632
ARIRANG-5 (KOMPSAT-5)   
1 39227U 13042A   26136.84060553  .00000747  00000+0  57728-4 0  9992
2 39227  97.6211 323.9821 0001999 216.2449 143.8642 15.04492807699142
GONETS-M 5              
1 39249U 13048A   26136.88214963  .00000017  00000+0  52984-4 0  9991
2 39249  82.4857   2.9024 0015743 283.4062  76.5263 12.42890830574995
GONETS-M 7              
1 39251U 13048C   26136.84567976  .00000121  00000+0  80227-3 0  9991
2 39251  82.4926   5.8306 0016555 284.7978  75.1267 12.42914006574948
FENGYUN 3C              
1 39260U 13052A   26136.87668882  .00000050  00000+0  46282-4 0  9992
2 39260  98.4965 112.1930 0015764 111.6893 248.5962 14.15747371654137
CASSIOPE                
1 39265U 13055A   26136.84006984  .00028385 -60511-6  32231-3 0  9996
2 39265  80.9136 104.7063 0300785 167.5059 193.3855 15.22755835662899
APRIZESAT 7             
1 39416U 13066A   26136.62312301  .00000887  00000+0  93409-4 0  9996
2 39416  97.7691  90.3023 0034822 317.9803  41.8745 14.91487400676524
ZACUBE-1 (TSHEPISOSAT)  
1 39417U 13066B   26136.87679713  .00003131  00000+0  24635-3 0  9996
2 39417  97.8122  99.0440 0041362 358.2569   1.8503 15.00930533676033
APRIZESAT 8             
1 39425U 13066K   26136.79705294  .00000678  00000+0  79315-4 0  9999
2 39425  97.8206  84.7084 0046803  30.9266 329.4692 14.87579526675002
TRITON-1                
1 39427U 13066M   26136.68970589  .00001273  00000+0  15823-3 0  9995
2 39427  97.8272  47.2142 0089800 338.0604  21.6773 14.81557878669428
